DELTA 2 R/B(1)          
1 20453U 90008B   25337.96139543  .00053662  00000+0  88671-3 0  9995
2 20453  35.6066  77.1784 0112427  98.2852 263.0646 15.44221270911272
COSMOS 2058             
1 20465U 90010A   25337.94679632  .00008169  00000+0  49609-3 0  9997
2 20465  82.4629 141.6800 0008494 310.4602  49.5886 15.10339657927784
SL-14 R/B               
1 20466U 90010B   25337.77440272  .00000703  00000+0  82523-4 0  9994
2 20466  82.5022 357.4677 0018317 254.8210 105.0979 14.83457853914261
SL-14 R/B               
1 20511U 90018B   25338.17265156  .00000919  00000+0  11256-3 0  9997
2 20511  82.5202 312.3726 0017601  50.0433 310.2324 14.82032711908432
HST                     
1 20580U 90037B   25338.17050091  .00013889  00000+0  48751-3 0  9994
2 20580  28.4702 330.8065 0002065 141.7786 218.2956 15.27861780758684
SL-16 R/B               
1 20625U 90046B   25337.90935734  .00000322  00000+0  19095-3 0  9997
2 20625  70.9982 139.0661 0011907  89.6326 270.6161 14.14998738834844
COSMOS 2084             
1 20663U 90055A   25338.12961699  .00006078  00000+0  43578-3 0  9990
2 20663  62.7911 301.3286 0033067 173.5860 186.5670 15.04931576921935
SL-6 R/B(2)             
1 20666U 90055D   25338.05196166  .00004483  00000+0  34529-3 0  9998
2 20666  62.7834 218.9339 0011942 302.0337  57.9601 15.03014611923815
SL-8 R/B                
1 20775U 90078B   25337.50411213  .00031137  00000+0  96466-3 0  9990
2 20775  82.9044 337.5748 0375037 336.9537  21.5219 14.85343652795000
SL-8 R/B                
1 21088U 91006B   25338.19188455  .00000113  00000+0  98545-4 0  9996
2 21088  82.9429 241.0704 0021497 305.1330 176.5808 13.77488596750927
OKEAN-3                 
1 21397U 91039A   25337.76742509  .00005109  00000+0  36710-3 0  9998
2 21397  82.5188  69.7312 0013127 298.4275  61.5627 15.04022546850611
COSMOS 2151             
1 21422U 91042A   25338.08262576  .00003490  00000+0  28081-3 0  9991
2 21422  82.4959 175.8454 0013360  28.2664 331.9281 14.99635918848861
