CCSDS_OMM_VERS = 2.0
CREATION_DATE  = 
ORIGINATOR     = 

OBJECT_NAME    = DELTA 2 R/B(1)
OBJECT_ID      = 1990-008B
CENTER_NAME    = EARTH
REF_FRAME      = TEME
TIME_SYSTEM    = UTC
MEAN_ELEMENT_THEORY = SGP/SGP4

EPOCH          = 2025-12-03T23:04:24.565152
MEAN_MOTION    = 15.44221270
ECCENTRICITY   = .0112427
INCLINATION    = 35.6066
RA_OF_ASC_NODE = 77.1784
ARG_OF_PERICENTER = 98.2852
MEAN_ANOMALY   = 263.0646

EPHEMERIS_TYPE = 0
CLASSIFICATION_TYPE = U
NORAD_CAT_ID   = 20453
ELEMENT_SET_NO = 999
REV_AT_EPOCH   = 91127
BSTAR          = .88671E-3
MEAN_MOTION_DOT = .53662E-3
MEAN_MOTION_DDOT = 0

CCSDS_OMM_VERS = 2.0
CREATION_DATE  = 
ORIGINATOR     = 

OBJECT_NAME    = COSMOS 2058
OBJECT_ID      = 1990-010A
CENTER_NAME    = EARTH
REF_FRAME      = TEME
TIME_SYSTEM    = UTC
MEAN_ELEMENT_THEORY = SGP/SGP4

EPOCH          = 2025-12-03T22:43:23.202048
MEAN_MOTION    = 15.10339657
ECCENTRICITY   = .0008494
INCLINATION    = 82.4629
RA_OF_ASC_NODE = 141.6800
ARG_OF_PERICENTER = 310.4602
MEAN_ANOMALY   = 49.5886

EPHEMERIS_TYPE = 0
CLASSIFICATION_TYPE = U
NORAD_CAT_ID   = 20465
ELEMENT_SET_NO = 999
REV_AT_EPOCH   = 92778
BSTAR          = .49609E-3
MEAN_MOTION_DOT = .8169E-4
MEAN_MOTION_DDOT = 0

CCSDS_OMM_VERS = 2.0
CREATION_DATE  = 
ORIGINATOR     = 

OBJECT_NAME    = SL-14 R/B
OBJECT_ID      = 1990-010B
CENTER_NAME    = EARTH
REF_FRAME      = TEME
TIME_SYSTEM    = UTC
MEAN_ELEMENT_THEORY = SGP/SGP4

EPOCH          = 2025-12-03T18:35:08.395008
MEAN_MOTION    = 14.83457853
ECCENTRICITY   = .00183177
INCLINATION    = 82.5022
RA_OF_ASC_NODE = 357.4677
ARG_OF_PERICENTER = 254.8210
MEAN_ANOMALY   = 105.0979

EPHEMERIS_TYPE = 0
CLASSIFICATION_TYPE = U
NORAD_CAT_ID   = 20466
ELEMENT_SET_NO = 999
REV_AT_EPOCH   = 91426
BSTAR          = .8252296E-4
MEAN_MOTION_DOT = .703E-5
MEAN_MOTION_DDOT = 0

CCSDS_OMM_VERS = 2.0
CREATION_DATE  = 
ORIGINATOR     = 

OBJECT_NAME    = SL-14 R/B
OBJECT_ID      = 1990-018B
CENTER_NAME    = EARTH
REF_FRAME      = TEME
TIME_SYSTEM    = UTC
MEAN_ELEMENT_THEORY = SGP/SGP4

EPOCH          = 2025-12-04T04:08:37.094784
MEAN_MOTION    = 14.82032711
ECCENTRICITY   = .0017601
INCLINATION    = 82.5202
RA_OF_ASC_NODE = 312.3726
ARG_OF_PERICENTER = 50.0433
MEAN_ANOMALY   = 310.2324

EPHEMERIS_TYPE = 0
CLASSIFICATION_TYPE = U
NORAD_CAT_ID   = 20511
ELEMENT_SET_NO = 999
REV_AT_EPOCH   = 90843
BSTAR          = .11256E-3
MEAN_MOTION_DOT = .919E-5
MEAN_MOTION_DDOT = 0

CCSDS_OMM_VERS = 2.0
CREATION_DATE  = 
ORIGINATOR     = 

OBJECT_NAME    = HST
OBJECT_ID      = 1990-037B
CENTER_NAME    = EARTH
REF_FRAME      = TEME
TIME_SYSTEM    = UTC
MEAN_ELEMENT_THEORY = SGP/SGP4

EPOCH          = 2025-12-04T04:05:31.278624
MEAN_MOTION    = 15.27861780
ECCENTRICITY   = .0002065
INCLINATION    = 28.4702
RA_OF_ASC_NODE = 330.8065
ARG_OF_PERICENTER = 141.7786
MEAN_ANOMALY   = 218.2956

EPHEMERIS_TYPE = 0
CLASSIFICATION_TYPE = U
NORAD_CAT_ID   = 20580
ELEMENT_SET_NO = 999
REV_AT_EPOCH   = 75868
BSTAR          = .48751E-3
MEAN_MOTION_DOT = .13889E-3
MEAN_MOTION_DDOT = 0

CCSDS_OMM_VERS = 2.0
CREATION_DATE  = 
ORIGINATOR     = 

OBJECT_NAME    = SL-16 R/B
OBJECT_ID      = 1990-046B
CENTER_NAME    = EARTH
REF_FRAME      = TEME
TIME_SYSTEM    = UTC
MEAN_ELEMENT_THEORY = SGP/SGP4

EPOCH          = 2025-12-03T21:49:28.474176
MEAN_MOTION    = 14.14998738
ECCENTRICITY   = .0011907
INCLINATION    = 70.9982
RA_OF_ASC_NODE = 139.0661
ARG_OF_PERICENTER = 89.6326
MEAN_ANOMALY   = 270.6161

EPHEMERIS_TYPE = 0
CLASSIFICATION_TYPE = U
NORAD_CAT_ID   = 20625
ELEMENT_SET_NO = 999
REV_AT_EPOCH   = 83484
BSTAR          = .19095E-3
MEAN_MOTION_DOT = .322E-5
MEAN_MOTION_DDOT = 0

CCSDS_OMM_VERS = 2.0
CREATION_DATE  = 
ORIGINATOR     = 

OBJECT_NAME    = COSMOS 2084
OBJECT_ID      = 1990-055A
CENTER_NAME    = EARTH
REF_FRAME      = TEME
TIME_SYSTEM    = UTC
MEAN_ELEMENT_THEORY = SGP/SGP4

EPOCH          = 2025-12-04T03:06:38.907936
MEAN_MOTION    = 15.04931576
ECCENTRICITY   = .0033067
INCLINATION    = 62.7911
RA_OF_ASC_NODE = 301.3286
ARG_OF_PERICENTER = 173.5860
MEAN_ANOMALY   = 186.5670

EPHEMERIS_TYPE = 0
CLASSIFICATION_TYPE = U
NORAD_CAT_ID   = 20663
ELEMENT_SET_NO = 999
REV_AT_EPOCH   = 92193
BSTAR          = .43578E-3
MEAN_MOTION_DOT = .6078E-4
MEAN_MOTION_DDOT = 0

CCSDS_OMM_VERS = 2.0
CREATION_DATE  = 
ORIGINATOR     = 

OBJECT_NAME    = SL-6 R/B(2)
OBJECT_ID      = 1990-055D
CENTER_NAME    = EARTH
REF_FRAME      = TEME
TIME_SYSTEM    = UTC
MEAN_ELEMENT_THEORY = SGP/SGP4

EPOCH          = 2025-12-04T01:14:49.487424
MEAN_MOTION    = 15.03014611
ECCENTRICITY   = .0011942
INCLINATION    = 62.7834
RA_OF_ASC_NODE = 218.9339
ARG_OF_PERICENTER = 302.0337
MEAN_ANOMALY   = 57.9601

EPHEMERIS_TYPE = 0
CLASSIFICATION_TYPE = U
NORAD_CAT_ID   = 20666
ELEMENT_SET_NO = 999
REV_AT_EPOCH   = 92381
BSTAR          = .34529E-3
MEAN_MOTION_DOT = .4483E-4
MEAN_MOTION_DDOT = 0

CCSDS_OMM_VERS = 2.0
CREATION_DATE  = 
ORIGINATOR     = 

OBJECT_NAME    = SL-8 R/B
OBJECT_ID      = 1990-078B
CENTER_NAME    = EARTH
REF_FRAME      = TEME
TIME_SYSTEM    = UTC
MEAN_ELEMENT_THEORY = SGP/SGP4

EPOCH          = 2025-12-03T12:05:55.288032
MEAN_MOTION    = 14.85343652
ECCENTRICITY   = .03750377
INCLINATION    = 82.9044
RA_OF_ASC_NODE = 337.5748
ARG_OF_PERICENTER = 336.9537
MEAN_ANOMALY   = 21.5219

EPHEMERIS_TYPE = 0
CLASSIFICATION_TYPE = U
NORAD_CAT_ID   = 20775
ELEMENT_SET_NO = 999
REV_AT_EPOCH   = 79500
BSTAR          = .96465965E-3
MEAN_MOTION_DOT = .31137E-3
MEAN_MOTION_DDOT = 0

CCSDS_OMM_VERS = 2.0
CREATION_DATE  = 
ORIGINATOR     = 

OBJECT_NAME    = SL-8 R/B
OBJECT_ID      = 1991-006B
CENTER_NAME    = EARTH
REF_FRAME      = TEME
TIME_SYSTEM    = UTC
MEAN_ELEMENT_THEORY = SGP/SGP4

EPOCH          = 2025-12-04T04:36:18.825120
MEAN_MOTION    = 13.77488596
ECCENTRICITY   = .0021497
INCLINATION    = 82.9429
RA_OF_ASC_NODE = 241.0704
ARG_OF_PERICENTER = 305.1330
MEAN_ANOMALY   = 176.5808

EPHEMERIS_TYPE = 0
CLASSIFICATION_TYPE = U
NORAD_CAT_ID   = 21088
ELEMENT_SET_NO = 999
REV_AT_EPOCH   = 75092
BSTAR          = .98545E-4
MEAN_MOTION_DOT = .113E-5
MEAN_MOTION_DDOT = 0

CCSDS_OMM_VERS = 2.0
CREATION_DATE  = 
ORIGINATOR     = 

OBJECT_NAME    = OKEAN-3
OBJECT_ID      = 1991-039A
CENTER_NAME    = EARTH
REF_FRAME      = TEME
TIME_SYSTEM    = UTC
MEAN_ELEMENT_THEORY = SGP/SGP4

EPOCH          = 2025-12-03T18:25:05.527776
MEAN_MOTION    = 15.04022546
ECCENTRICITY   = .00131273
INCLINATION    = 82.5188
RA_OF_ASC_NODE = 69.7312
ARG_OF_PERICENTER = 298.4275
MEAN_ANOMALY   = 61.5627

EPHEMERIS_TYPE = 0
CLASSIFICATION_TYPE = U
NORAD_CAT_ID   = 21397
ELEMENT_SET_NO = 999
REV_AT_EPOCH   = 85061
BSTAR          = .3671008E-3
MEAN_MOTION_DOT = .5109E-4
MEAN_MOTION_DDOT = 0

CCSDS_OMM_VERS = 2.0
CREATION_DATE  = 
ORIGINATOR     = 

OBJECT_NAME    = COSMOS 2151
OBJECT_ID      = 1991-042A
CENTER_NAME    = EARTH
REF_FRAME      = TEME
TIME_SYSTEM    = UTC
MEAN_ELEMENT_THEORY = SGP/SGP4

EPOCH          = 2025-12-04T01:58:58.865664
MEAN_MOTION    = 14.99635918
ECCENTRICITY   = .001336
INCLINATION    = 82.4959
RA_OF_ASC_NODE = 175.8454
ARG_OF_PERICENTER = 28.2664
MEAN_ANOMALY   = 331.9281

EPHEMERIS_TYPE = 0
CLASSIFICATION_TYPE = U
NORAD_CAT_ID   = 21422
ELEMENT_SET_NO = 999
REV_AT_EPOCH   = 84886
BSTAR          = .28081E-3
MEAN_MOTION_DOT = .349E-4
MEAN_MOTION_DDOT = 0

